start=new Date('2022-01-04T00:00:00.000Z').valueOf();
sats=[{"FILE":"3255250","RCS_SIZE":"LARGE","EPHEMERIS_TYPE":"0","PERIAPSIS":"546.104","MEAN_MOTION_DDOT":"0.0000000000000","MEAN_ANOMALY":"296.2462","ELEMENT_SET_NO":"999","GP_ID":"192967088","CLASSIFICATION_TYPE":"U","MEAN_MOTION_DOT":"0.00001142","ARG_OF_PERICENTER":"63.8689","INCLINATION":"53.0556","SITE":"AFETR","REV_AT_EPOCH":"10974","OBJECT_ID":"2020-001P","TLE_LINE2":"2 44927  53.0556   0.1907 0001576  63.8689 296.2462 15.06406010109743","ECCENTRICITY":"0.00015760","BSTAR":"0.00009551500000","TIME_SYSTEM":"UTC","OBJECT_NAME":"STARLINK-1114","APOAPSIS":"548.287","NORAD_CAT_ID":"44927","MEAN_MOTION":"15.06406010","DECAY_DATE":null,"LAUNCH_DATE":"2020-01-07","COUNTRY_CODE":"US","OBJECT_TYPE":"PAYLOAD","SEMIMAJOR_AXIS":"6925.330","PERIOD":"95.592","MEAN_ELEMENT_THEORY":"SGP4","EPOCH":"2022-01-02T23:59:55.441536","RA_OF_ASC_NODE":"0.1907","TLE_LINE1":"1 44927U 20001P   22002.99994724  .00001142  00000-0  95515-4 0  9995","REF_FRAME":"TEME","CENTER_NAME":"EARTH"},{"COUNTRY_CODE":"US","LAUNCH_DATE":"2020-01-07","DECAY_DATE":null,"NORAD_CAT_ID":"44928","APOAPSIS":"549.011","MEAN_MOTION":"15.06298437","OBJECT_NAME":"STARLINK-1119","TIME_SYSTEM":"UTC","CENTER_NAME":"EARTH","REF_FRAME":"TEME","RA_OF_ASC_NODE":"359.0336","TLE_LINE1":"1 44928U 20001Q   22003.26167759  .00023286  00000-0  15813-2 0  9991","MEAN_ELEMENT_THEORY":"SGP4","EPOCH":"2022-01-03T06:16:48.943776","PERIOD":"95.599","SEMIMAJOR_AXIS":"6925.660","OBJECT_TYPE":"PAYLOAD","ARG_OF_PERICENTER":"72.9576","REV_AT_EPOCH":"10978","SITE":"AFETR","INCLINATION":"53.0544","MEAN_MOTION_DOT":"0.00023286","GP_ID":"192966341","CLASSIFICATION_TYPE":"U","MEAN_ANOMALY":"287.1648","ELEMENT_SET_NO":"999","MEAN_MOTION_DDOT":"0.0000000000000","PERIAPSIS":"546.039","EPHEMERIS_TYPE":"0","RCS_SIZE":"LARGE","FILE":"3255250","BSTAR":"0.00158130000000","ECCENTRICITY":"0.00021460","OBJECT_ID":"2020-001Q","TLE_LINE2":"2 44928  53.0544 359.0336 0002146  72.9576 287.1648 15.06298437109784"},{"BSTAR":"0.00006190300000","ECCENTRICITY":"0.00016330","TLE_LINE2":"2 44929  53.0551 358.4845 0001633  70.9960 289.1206 15.06383064109790","OBJECT_ID":"2020-001R","ELEMENT_SET_NO":"999","MEAN_ANOMALY":"289.1206","MEAN_MOTION_DDOT":"0.0000000000000","SITE":"AFETR","REV_AT_EPOCH":"10979","INCLINATION":"53.0551","ARG_OF_PERICENTER":"70.9960","GP_ID":"192966591","CLASSIFICATION_TYPE":"U","MEAN_MOTION_DOT":"0.00000640","FILE":"3255250","PERIAPSIS":"546.135","EPHEMERIS_TYPE":"0","RCS_SIZE":"LARGE","TLE_LINE1":"1 44929U 20001R   22003.37962356  .00000640  00000-0  61903-4 0  9992","RA_OF_ASC_NODE":"358.4845","CENTER_NAME":"EARTH","REF_FRAME":"TEME","SEMIMAJOR_AXIS":"6925.400","OBJECT_TYPE":"PAYLOAD","EPOCH":"2022-01-03T09:06:39.475584","MEAN_ELEMENT_THEORY":"SGP4","PERIOD":"95.593","LAUNCH_DATE":"2020-01-07","DECAY_DATE":null,"COUNTRY_CODE":"US","TIME_SYSTEM":"UTC","OBJECT_NAME":"STARLINK-1121","MEAN_MOTION":"15.06383064","APOAPSIS":"548.396","NORAD_CAT_ID":"44929"},{"TIME_SYSTEM":"UTC","OBJECT_NAME":"STARLINK-1123","NORAD_CAT_ID":"44930","APOAPSIS":"548.179","MEAN_MOTION":"15.06398331","DECAY_DATE":null,"LAUNCH_DATE":"2020-01-07","COUNTRY_CODE":"US","OBJECT_TYPE":"PAYLOAD","SEMIMAJOR_AXIS":"6925.354","PERIOD":"95.592","MEAN_ELEMENT_THEORY":"SGP4","EPOCH":"2022-01-03T08:18:51.591744","RA_OF_ASC_NODE":"358.6430","TLE_LINE1":"1 44930U 20001S   22003.34643046  .00000643  00000-0  62034-4 0  9992","REF_FRAME":"TEME","CENTER_NAME":"EARTH","FILE":"3255250","EPHEMERIS_TYPE":"0","RCS_SIZE":"LARGE","PERIAPSIS":"546.259","MEAN_MOTION_DDOT":"0.0000000000000","MEAN_ANOMALY":"292.4617","ELEMENT_SET_NO":"999","MEAN_MOTION_DOT":"0.00000643","GP_ID":"192966842","CLASSIFICATION_TYPE":"U","ARG_OF_PERICENTER":"67.6519","SITE":"AFETR","REV_AT_EPOCH":"10979","INCLINATION":"53.0547","OBJECT_ID":"2020-001S","TLE_LINE2":"2 44930  53.0547 358.6430 0001386  67.6519 292.4617 15.06398331109793","ECCENTRICITY":"0.00013860","BSTAR":"0.00006203400000"},{"COUNTRY_CODE":"US","DECAY_DATE":null,"LAUNCH_DATE":"2020-01-07","MEAN_MOTION":"15.09641463","NORAD_CAT_ID":"44931","APOAPSIS":"538.808","OBJECT_NAME":"STARLINK-1128","TIME_SYSTEM":"UTC","REF_FRAME":"TEME","CENTER_NAME":"EARTH","TLE_LINE1":"1 44931U 20001T   22003.24897641  .00006590  00000-0  42247-3 0  9994","RA_OF_ASC_NODE":"358.2799","PERIOD":"95.387","EPOCH":"2022-01-03T05:58:31.561824","MEAN_ELEMENT_THEORY":"SGP4","OBJECT_TYPE":"PAYLOAD","SEMIMAJOR_AXIS":"6915.432","CLASSIFICATION_TYPE":"U","GP_ID":"192967589","MEAN_MOTION_DOT":"0.00006590","INCLINATION":"53.0536","SITE":"AFETR","REV_AT_EPOCH":"11053","ARG_OF_PERICENTER":"66.4375","MEAN_MOTION_DDOT":"0.0000000000000","ELEMENT_SET_NO":"999","MEAN_ANOMALY":"293.6845","RCS_SIZE":"LARGE","EPHEMERIS_TYPE":"0","PERIAPSIS":"535.785","FILE":"3255250","ECCENTRICITY":"0.00021860","BSTAR":"0.00042247000000","TLE_LINE2":"2 44931  53.0536 358.2799 0002186  66.4375 293.6845 15.09641463110532","OBJECT_ID":"2020-001T"},{"OBJECT_NAME":"STARLINK-1130","TIME_SYSTEM":"UTC","NORAD_CAT_ID":"44932","APOAPSIS":"548.152","MEAN_MOTION":"15.06400344","LAUNCH_DATE":"2020-01-07","DECAY_DATE":null,"COUNTRY_CODE":"US","SEMIMAJOR_AXIS":"6925.348","OBJECT_TYPE":"PAYLOAD","MEAN_ELEMENT_THEORY":"SGP4","EPOCH":"2022-01-03T09:38:28.389408","PERIOD":"95.592","RA_OF_ASC_NODE":"358.3990","TLE_LINE1":"1 44932U 20001U   22003.40171747  .00000529  00000-0  54372-4 0  9994","CENTER_NAME":"EARTH","REF_FRAME":"TEME","FILE":"3255250","PERIAPSIS":"546.273","RCS_SIZE":"LARGE","EPHEMERIS_TYPE":"0","MEAN_ANOMALY":"289.6585","ELEMENT_SET_NO":"999","MEAN_MOTION_DDOT":"0.0000000000000","ARG_OF_PERICENTER":"70.4550","SITE":"AFETR","INCLINATION":"53.0552","REV_AT_EPOCH":"11103","GP_ID":"192965841","CLASSIFICATION_TYPE":"U","MEAN_MOTION_DOT":"0.00000529","OBJECT_ID":"2020-001U","TLE_LINE2":"2 44932  53.0552 358.3990 0001357  70.4550 289.6585 15.06400344111034","BSTAR":"0.00005437200000","ECCENTRICITY":"0.00013570"},{"RCS_SIZE":"LARGE","EPHEMERIS_TYPE":"0","PERIAPSIS":"546.175","FILE":"3255250","GP_ID":"192966091","CLASSIFICATION_TYPE":"U","MEAN_MOTION_DOT":"0.00000375","ARG_OF_PERICENTER":"75.2974","REV_AT_EPOCH":"11108","SITE":"AFETR","INCLINATION":"53.0559","MEAN_MOTION_DDOT":"0.0000000000000","MEAN_ANOMALY":"284.8185","ELEMENT_SET_NO":"999","OBJECT_ID":"2020-001V","TLE_LINE2":"2 44933  53.0559 358.5784 0001531  75.2974 284.8185 15.06392836111086","ECCENTRICITY":"0.00015310","BSTAR":"0.00004404800000","APOAPSIS":"548.296","NORAD_CAT_ID":"44933","MEAN_MOTION":"15.06392836","TIME_SYSTEM":"UTC","OBJECT_NAME":"STARLINK-1144","COUNTRY_CODE":"US","DECAY_DATE":null,"LAUNCH_DATE":"2020-01-07","PERIOD":"95.593","MEAN_ELEMENT_THEORY":"SGP4","EPOCH":"2022-01-03T08:40:05.945952","OBJECT_TYPE":"PAYLOAD","SEMIMAJOR_AXIS":"6925.371","REF_FRAME":"TEME","CENTER_NAME":"EARTH","RA_OF_ASC_NODE":"358.5784","TLE_LINE1":"1 44933U 20001V   22003.36117993  .00000375  00000-0  44048-4 0  9991"},{"COUNTRY_CODE":"US","DECAY_DATE":null,"LAUNCH_DATE":"2020-01-07","MEAN_MOTION":"15.06406865","NORAD_CAT_ID":"44934","APOAPSIS":"548.389","OBJECT_NAME":"STARLINK-1071","TIME_SYSTEM":"UTC","REF_FRAME":"TEME","CENTER_NAME":"EARTH","TLE_LINE1":"1 44934U 20001W   22003.44042370  .00005777  00000-0  40631-3 0  9991","RA_OF_ASC_NODE":"338.2201","PERIOD":"95.592","EPOCH":"2022-01-03T10:34:12.607680","MEAN_ELEMENT_THEORY":"SGP4","OBJECT_TYPE":"PAYLOAD","SEMIMAJOR_AXIS":"6925.328","GP_ID":"192967343","MEAN_MOTION_DOT":"0.00005777","CLASSIFICATION_TYPE":"U","SITE":"AFETR","INCLINATION":"53.0545","REV_AT_EPOCH":"11008","ARG_OF_PERICENTER":"75.8011","MEAN_MOTION_DDOT":"0.0000000000000","ELEMENT_SET_NO":"999","MEAN_ANOMALY":"284.3170","RCS_SIZE":"LARGE","EPHEMERIS_TYPE":"0","PERIAPSIS":"545.997","FILE":"3255250","ECCENTRICITY":"0.00017270","BSTAR":"0.00040631000000","TLE_LINE2":"2 44934  53.0545 338.2201 0001727  75.8011 284.3170 15.06406865110082","OBJECT_ID":"2020-001W"},{"ECCENTRICITY":"0.00015530","BSTAR":"0.00003782400000","OBJECT_ID":"2020-001Z","TLE_LINE2":"2 44937  53.0551 338.3239 0001553  63.5933 296.5215 15.06393447110084","MEAN_MOTION_DDOT":"0.0000000000000","MEAN_ANOMALY":"296.5215","ELEMENT_SET_NO":"999","GP_ID":"192967089","CLASSIFICATION_TYPE":"U","MEAN_MOTION_DOT":"0.00000282","ARG_OF_PERICENTER":"63.5933","SITE":"AFETR","INCLINATION":"53.0551","REV_AT_EPOCH":"11008","FILE":"3255250","EPHEMERIS_TYPE":"0","RCS_SIZE":"LARGE","PERIAPSIS":"546.158","RA_OF_ASC_NODE":"338.3239","TLE_LINE1":"1 44937U 20001Z   22003.41830510  .00000282  00000-0  37824-4 0  9999","REF_FRAME":"TEME","CENTER_NAME":"EARTH","OBJECT_TYPE":"PAYLOAD","SEMIMAJOR_AXIS":"6925.369","PERIOD":"95.593","MEAN_ELEMENT_THEORY":"SGP4","EPOCH":"2022-01-03T10:02:21.560640","DECAY_DATE":null,"LAUNCH_DATE":"2020-01-07","COUNTRY_CODE":"US","OBJECT_NAME":"STARLINK-1079","TIME_SYSTEM":"UTC","APOAPSIS":"548.309","NORAD_CAT_ID":"44937","MEAN_MOTION":"15.06393447"},{"RCS_SIZE":"LARGE","EPHEMERIS_TYPE":"0","PERIAPSIS":"546.031","FILE":"3255250","GP_ID":"192966342","MEAN_MOTION_DOT":"0.00000716","CLASSIFICATION_TYPE":"U","SITE":"AFETR","REV_AT_EPOCH":"11006","INCLINATION":"53.0556","ARG_OF_PERICENTER":"61.5867","MEAN_MOTION_DDOT":"0.0000000000000","ELEMENT_SET_NO":"999","MEAN_ANOMALY":"298.5295","TLE_LINE2":"2 44938  53.0556 338.7656 0001709  61.5867 298.5295 15.06399646110069","OBJECT_ID":"2020-001AA","ECCENTRICITY":"0.00017090","BSTAR":"0.00006699700000","MEAN_MOTION":"15.06399646","APOAPSIS":"548.398","NORAD_CAT_ID":"44938","OBJECT_NAME":"STARLINK-1082","TIME_SYSTEM":"UTC","COUNTRY_CODE":"US","DECAY_DATE":null,"LAUNCH_DATE":"2020-01-07","PERIOD":"95.592","EPOCH":"2022-01-03T07:39:03.123360","MEAN_ELEMENT_THEORY":"SGP4","OBJECT_TYPE":"PAYLOAD","SEMIMAJOR_AXIS":"6925.350","REF_FRAME":"TEME","CENTER_NAME":"EARTH","TLE_LINE1":"1 44938U 20001AA  22003.31878615  .00000716  00000-0  66997-4 0  9992","RA_OF_ASC_NODE":"338.7656"}];
